OBJECT_NAME,OBJECT_ID,EPOCH,MEAN_MOTION,ECCENTRICITY,INCLINATION,RA_OF_ASC_NODE,ARG_OF_PERICENTER,MEAN_ANOMALY,EPHEMERIS_TYPE,CLASSIFICATION_TYPE,NORAD_CAT_ID,ELEMENT_SET_NO,REV_AT_EPOCH,BSTAR,MEAN_MOTION_DOT,MEAN_MOTION_DDOT
DUCHIFAT-1,2014-033M,2026-05-16T07:10:27.267744,15.58674895,.00060672,98.0502,191.1416,177.5607,182.5678,0,U,40021,999,65077,.10979536E-2,.8506E-3,0
NANOSATC-BR1,2014-033Q,2026-05-16T05:50:13.610976,15.30384614,.00016928,98.0743,165.8253,305.8001,54.3080,0,U,40024,999,64909,.50306884E-3,.14711E-3,0
QB50P1,2014-033R,2026-05-16T04:19:02.037216,15.17732199,.00080185,98.0974,145.0946,347.4822,12.6209,0,U,40025,999,64817,.32749314E-3,.6537E-4,0
DTUSAT-2,2014-033W,2026-05-16T03:13:14.122272,15.14571465,.00075428,98.0862,131.8391,358.2495,1.8707,0,U,40030,999,64783,.29520061E-3,.5375E-4,0
QB50P2,2014-033Y,2026-05-16T03:09:18.156096,15.14720980,.00057173,98.0751,131.0291,288.7339,71.3271,0,U,40032,999,64781,.28799283E-3,.5263E-4,0
PERSEUS-M1,2014-033AF,2026-05-16T06:08:57.920352,14.95517821,.00127956,97.9633,79.8703,49.1517,311.0810,0,U,40039,999,64586,.14404821E-3,.1537E-4,0
POLYITAN-1,2014-033AJ,2026-05-15T23:53:57.361056,15.32082668,.00054973,98.0960,159.2400,252.3119,107.7520,0,U,40042,999,64866,.44997023E-3,.13866E-3,0
TIGRISAT,2014-033AK,2026-05-15T20:12:25.174656,14.85014795,.00495273,97.7794,286.6058,179.1372,180.9937,0,U,40043,999,64082,.15680564E-3,.1312E-4,0
CANX-4,2014-034C,2026-05-16T01:33:07.312608,14.81200985,.00140173,98.3165,10.1932,112.0914,248.1787,0,U,40055,999,63977,.77942439E-4,.55E-5,0
CANX-5,2014-034D,2026-05-16T04:45:57.078720,14.81218497,.00140217,98.3165,10.3736,111.8663,248.4041,0,U,40056,999,63060,.84052927E-4,.598E-5,0
GONETS-M 10,2014-036C,2026-05-16T06:36:45.650304,12.42944657,.00212947,82.5104,327.5027,209.8364,150.1503,0,U,40063,999,53828,-.35182906E-4,.5E-7,0
METEOR-M 2,2014-037A,2026-05-16T06:12:39.925152,14.21453978,.00066838,98.5093,113.1314,121.8853,238.2976,0,U,40069,999,61478,.23538158E-3,.473E-5,0
DX1,2014-037C,2026-05-16T07:51:04.235904,14.89880512,.00079911,98.3848,96.1026,27.0850,333.0781,0,U,40071,999,64136,.11799925E-3,.1072E-4,0
UKUBE-1,2014-037F,2026-05-16T05:32:25.697472,15.13004390,.00003131,98.4239,136.1608,102.2785,257.8479,0,U,40074,999,64372,.33959695E-3,.5919E-4,0
GAOFEN-2,2014-049A,2026-05-16T06:49:01.183008,14.80863855,.00069218,98.0130,200.5193,348.6911,11.4144,0,U,40118,999,63451,.73426627E-4,.514E-5,0
BRITE-PL2 (HEWELIUSZ),2014-049B,2026-05-16T05:40:06.045312,14.94463659,.0013404,97.9061,247.9993,210.7824,149.2611,0,U,40119,999,63667,.10161301E-3,.1038E-4,0
CBERS 4,2014-079A,2026-05-16T07:44:43.090944,14.35499429,.00020696,98.3557,194.1503,100.9470,259.1949,0,U,40336,999,59938,.29574189E-4,.43E-6,0
SMAP,2015-003A,2026-05-16T06:50:08.967264,14.63408868,.00013024,98.1285,143.8310,70.3535,289.7808,0,U,40376,999,60295,.56563693E-4,.246E-5,0
GONETS-M 11,2015-020A,2026-05-16T05:04:59.359296,12.42875563,.00174062,82.4886,50.9127,71.8044,288.4929,0,U,40552,999,50476,-.3288431E-3,-.36E-6,0
GONETS-M 12,2015-020B,2026-05-16T06:23:15.417888,12.42890104,.00163847,82.4919,51.9944,57.4560,302.8100,0,U,40553,999,50476,.1829716E-3,.35E-6,0
GONETS-M 13,2015-020C,2026-05-16T05:44:17.632608,12.42868793,.00148861,82.4882,50.6357,43.5671,316.6582,0,U,40554,999,50473,-.15155463E-3,-.11E-6,0
DMC3-FM1,2015-032A,2026-05-16T06:45:59.825952,14.85698977,.00060769,97.6510,2.7026,143.8983,216.2644,0,U,40715,999,58517,.3508315E-5,-.21E-6,0
DMC3-FM2,2015-032B,2026-05-16T07:17:54.866400,14.85702161,.00064367,97.6562,4.2757,150.5953,209.5626,0,U,40716,999,58517,.4354258E-5,-.14E-6,0
DMC3-FM3,2015-032C,2026-05-16T06:14:12.581376,14.85694753,.00057369,97.6615,5.9657,148.5707,211.5853,0,U,40717,999,58517,.85200659E-4,.688E-5,0
CARBONITE 1 (CBNT-1),2015-032D,2026-05-16T06:42:38.079360,14.83482826,.00156328,97.6496,315.6875,43.7462,316.4988,0,U,40718,999,58461,.12005393E-3,.938E-5,0
LILACSAT-2,2015-049K,2026-05-16T08:00:51.183072,15.50334979,.00072707,97.4683,171.9856,26.5940,333.5683,0,U,40908,999,59081,.29774027E-3,.16815E-3,0
