DUCHIFAT-1              
1 40021U 14033M   26136.29892671  .00085060  00000+0  10980-2 0  9998
2 40021  98.0502 191.1416 0006067 177.5607 182.5678 15.58674895650778
NANOSATC-BR1            
1 40024U 14033Q   26136.24321309  .00014711  00000+0  50307-3 0  9994
2 40024  98.0743 165.8253 0001692 305.8001  54.3080 15.30384614649091
QB50P1                  
1 40025U 14033R   26136.17988469  .00006537  00000+0  32749-3 0  9990
2 40025  98.0974 145.0946 0008018 347.4822  12.6209 15.17732199648177
DTUSAT-2                
1 40030U 14033W   26136.13419123  .00005375  00000+0  29520-3 0  9990
2 40030  98.0862 131.8391 0007542 358.2495   1.8707 15.14571465647832
QB50P2                  
1 40032U 14033Y   26136.13146014  .00005263  00000+0  28799-3 0  9991
2 40032  98.0751 131.0291 0005717 288.7339  71.3271 15.14720980647812
PERSEUS-M1              
1 40039U 14033AF  26136.25622593  .00001537  00000+0  14405-3 0  9991
2 40039  97.9633  79.8703 0012795  49.1517 311.0810 14.95517821645866
POLYITAN-1              
1 40042U 14033AJ  26135.99580279  .00013866  00000+0  44997-3 0  9996
2 40042  98.0960 159.2400 0005497 252.3119 107.7520 15.32082668648666
TIGRISAT                
1 40043U 14033AK  26135.84195804  .00001312  00000+0  15681-3 0  9998
2 40043  97.7794 286.6058 0049527 179.1372 180.9937 14.85014795640829
CANX-4                  
1 40055U 14034C   26136.06466797  .00000550  00000+0  77942-4 0  9991
2 40055  98.3165  10.1932 0014017 112.0914 248.1787 14.81200985639772
CANX-5                  
1 40056U 14034D   26136.19857730  .00000598  00000+0  84053-4 0  9990
2 40056  98.3165  10.3736 0014021 111.8663 248.4041 14.81218497630606
GONETS-M 10             
1 40063U 14036C   26136.27552836  .00000005  00000+0 -35183-4 0  9992
2 40063  82.5104 327.5027 0021294 209.8364 150.1503 12.42944657538286
METEOR-M 2              
1 40069U 14037A   26136.25879543  .00000473  00000+0  23538-3 0  9992
2 40069  98.5093 113.1314 0006683 121.8853 238.2976 14.21453978614787
DX1                     
1 40071U 14037C   26136.32713236  .00001072  00000+0  11800-3 0  9994
2 40071  98.3848  96.1026 0007991  27.0850 333.0781 14.89880512641367
UKUBE-1                 
1 40074U 14037F   26136.23085298  .00005919  00000+0  33960-3 0  9992
2 40074  98.4239 136.1608 0000313 102.2785 257.8479 15.13004390643729
GAOFEN-2                
1 40118U 14049A   26136.28404147  .00000514  00000+0  73427-4 0  9996
2 40118  98.0130 200.5193 0006921 348.6911  11.4144 14.80863855634519
BRITE-PL2 (HEWELIUSZ)   
1 40119U 14049B   26136.23618108  .00001038  00000+0  10161-3 0  9993
2 40119  97.9061 247.9993 0013404 210.7824 149.2611 14.94463659636671
CBERS 4                 
1 40336U 14079A   26136.32272096  .00000043  00000+0  29574-4 0  9993
2 40336  98.3557 194.1503 0002069 100.9470 259.1949 14.35499429599389
SMAP                    
1 40376U 15003A   26136.28482601  .00000246  00000+0  56564-4 0  9999
2 40376  98.1285 143.8310 0001302  70.3535 289.7808 14.63408868602956
GONETS-M 11             
1 40552U 15020A   26136.21179814 -.00000036  00000+0 -32884-3 0  9993
2 40552  82.4886  50.9127 0017406  71.8044 288.4929 12.42875563504767
GONETS-M 12             
1 40553U 15020B   26136.26615067  .00000035  00000+0  18297-3 0  9993
2 40553  82.4919  51.9944 0016384  57.4560 302.8100 12.42890104504760
GONETS-M 13             
1 40554U 15020C   26136.23909297 -.00000011  00000+0 -15155-3 0  9998
2 40554  82.4882  50.6357 0014886  43.5671 316.6582 12.42868793504731
DMC3-FM1                
1 40715U 15032A   26136.28194243 -.00000021  00000+0  35083-5 0  9996
2 40715  97.6510   2.7026 0006076 143.8983 216.2644 14.85698977585174
DMC3-FM2                
1 40716U 15032B   26136.30410725 -.00000014  00000+0  43543-5 0  9998
2 40716  97.6562   4.2757 0006436 150.5953 209.5626 14.85702161585178
DMC3-FM3                
1 40717U 15032C   26136.25986784  .00000688  00000+0  85201-4 0  9998
2 40717  97.6615   5.9657 0005736 148.5707 211.5853 14.85694753585173
CARBONITE 1 (CBNT-1)    
1 40718U 15032D   26136.27960740  .00000938  00000+0  12005-3 0  9994
2 40718  97.6496 315.6875 0015632  43.7462 316.4988 14.83482826584610
LILACSAT-2              
1 40908U 15049K   26136.33392573  .00016815  00000+0  29774-3 0  9995
2 40908  97.4683 171.9856 0007270  26.5940 333.5683 15.50334979590819
